SatCatId,ObjectName,LaunchYear,OrbitalPeriod,LaunchMass,StatusCode,Inclination,Status,UcsData,OrbitClassEstimated,LaunchSiteCountry,Owner,UseType,Purpose,LaunchVehicleClass,TLE1,TLE2,MeanMotion,Eccentricity,OrbitClass
19785,COSMOS 1994,1989,113.9,-1.0,UNK,82.62,Inactive,0,LEO,Russia,Russia/USSR,Unknown,Unknown,Unknown,1 19785U 89009A   24141.43100353  .00000039  00000+0  15598-3 0  9999,2 19785  82.6178 114.3372 0011779 232.1572 242.6280 12.64314022627624,12.64314022,0.0011779,LEO
19786,COSMOS 1995,1989,114.09,-1.0,UNK,82.62,Inactive,0,LEO,Russia,Russia/USSR,Unknown,Unknown,Unknown,1 19786U 89009B   24142.12118243  .00000064  00000+0  29807-3 0  9990,2 19786  82.6202 148.8786 0004397  52.6491  12.6351 12.62199236625029,12.62199236,0.0004397,LEO
19787,COSMOS 1996,1989,114.02,-1.0,UNK,82.61,Inactive,0,LEO,Russia,Russia/USSR,Unknown,Unknown,Unknown,1 19787U 89009C   24141.55258958  .00000040  00000+0  16531-3 0  9999,2 19787  82.6103 127.8946 0006040 342.2315 167.2566 12.62894447625790,12.62894447,0.000604,LEO
19788,COSMOS 1997,1989,113.95,-1.0,UNK,82.62,Inactive,0,LEO,Russia,Russia/USSR,Unknown,Unknown,Unknown,1 19788U 89009D   24141.48186259  .00000035  00000+0  13154-3 0  9998,2 19788  82.6163 122.7688 0008234 267.1523 213.5354 12.63661824626802,12.63661824,0.0008234,LEO
19789,COSMOS 1998,1989,113.84,-1.0,UNK,82.61,Inactive,0,LEO,Russia,Russia/USSR,Unknown,Unknown,Unknown,1 19789U 89009E   24141.33423806  .00000027  00000+0  89817-4 0  9996,2 19789  82.6095  95.2601 0015293 203.9510 156.0873 12.64901248628204,12.64901248,0.0015293,LEO
19790,COSMOS 1999,1989,113.77,-1.0,UNK,82.62,Inactive,0,LEO,Russia,Russia/USSR,Unknown,Unknown,Unknown,1 19790U 89009F   24141.40561469  .00000029  00000+0  96401-4 0  9993,2 19790  82.6170  90.7283 0019994 148.7481 335.3155 12.65716632629388,12.65716632,0.0019994,LEO
11605,METEOR 2-5,1979,102.33,-1.0,UNK,81.21,Inactive,0,LEO,Russia,Russia/USSR,Unknown,Unknown,Unknown,1 11605U 79095A   24142.34239605  .00000214  00000+0  12053-3 0  9998,2 11605  81.2114 247.6455 0011347 220.0996 139.9336 14.07275472287098,14.07275472,0.0011347,LEO
19802,NAVSTAR 13 (USA 35),1989,777.01,-1.0,-,54.6,Inactive,0,MEO,USA,USA,Unknown,Unknown,Unknown,1 19802U 89013A   24141.88529625  .00000062  00000+0  00000+0 0  9994,2 19802  54.5963 120.1859 0041529 234.0043 333.2763  1.85325154245100,1.85325154,0.0041529,MEO
19807,MOLNIYA 1-75,1989,717.98,-1.0,UNK,63.84,Inactive,0,MEO,Kazakhstan,Russia/USSR,Unknown,Unknown,Unknown,1 19807U 89014A   24139.99340628  .00000291  00000+0  00000+0 0  9997,2 19807  63.8362 213.0748 6620909 262.0405  23.8714  2.00563544258066,2.00563544,0.6620909,MEO
3428,OV2-5,1968,1417.86,-1.0,-,1.07,Inactive,0,GSO,USA,USA,Unknown,Unknown,Unknown,1 03428U 68081A   24141.61439066 -.00000199  00000+0  00000+0 0  9995,2 03428   1.0716 353.1241 0080782 327.6997 203.7705  1.01561772113695,1.01561772,0.0080782,GSO
11621,OPS 9443 (DSCS 2-13),1979,1506.3,-1.0,-,11.75,Inactive,0,HEO,USA,USA,Unknown,Unknown,Unknown,1 11621U 79098A   24141.46789846 -.00000097  00000+0  00000+0 0  9993,2 11621  11.7527 318.1518 0010404 122.1552  80.3477  0.95598717608150,0.95598717,0.0010404,HEO
3431,LES-6,1968,1435.45,-1.0,-,1.31,Inactive,0,GSO,USA,USA,Unknown,Unknown,Titan,1 03431U 68081D   24141.51657726 -.00000259  00000+0  00000+0 0  9990,2 03431   1.3141 327.1161 0007884  16.0269  13.8412  1.00316656113197,1.00316656,0.0007884,GSO
11622,OPS 9444 (DSCS 2-14),1979,1464.11,-1.0,-,10.11,Inactive,0,GSO,USA,USA,Unknown,Unknown,Unknown,1 11622U 79098B   24141.27612139 -.00000219  00000+0  00000+0 0  9999,2 11622  10.1101 311.3228 0004672 110.1805  79.4529  0.98353038104520,0.98353038,0.0004672,GSO
44395,ROBUSTA 1C (MTCUBE),2019,93.91,-1.0,-,97.71,Inactive,0,LEO,Russia,France,Unknown,Unknown,Unknown,1 44395U 19038K   24141.88021490  .00029530  00000+0  91318-3 0  9993,2 44395  97.7099 134.4890 0015804 195.1848 164.8922 15.33336879269895,15.33336879,0.0015804,LEO
44397,OBJECT M,2019,90.61,-1.0,-,97.67,Inactive,0,LEO,Russia,To Be Determined,Unknown,Unknown,Unknown,1 44397U 19038M   24142.54442273  .00549464  11869-3  17939-2 0  9993,2 44397  97.6721 147.8785 0011720 158.1889 201.9884 15.90515011270876,15.90515011,0.001172,LEO
19822,AKEBONO (EXOS-D),1989,100.11,-1.0,-,74.93,Inactive,0,LEO,Japan,Japan,Unknown,Unknown,Unknown,1 19822U 89016A   24142.49198645  .00167026  50717-5  10498-2 0  9996,2 19822  74.9348 256.6588 0741948 289.8926  62.3795 14.38736164222579,14.38736164,0.0741948,LEO
19826,COSMOS 2004,1989,104.92,-1.0,UNK,82.95,Inactive,0,LEO,Russia,Russia/USSR,Unknown,Unknown,Unknown,1 19826U 89017A   24142.08400709  .00000135  00000+0  13039-3 0  9999,2 19826  82.9496 121.0658 0029765 191.0579 241.3576 13.72431947764859,13.72431947,0.0029765,LEO
11635,SATCOM 3,1979,788.92,-1.0,UNK,7.63,Inactive,0,MEO,USA,USA,Unknown,Unknown,Unknown,1 11635U 79101A   24141.31310676 -.00000041  00000+0  00000+0 0  9997,2 11635   7.6286 156.9587 4855662 323.3338 264.9631  1.82527696210133,1.82527696,0.4855662,MEO
44414,OBJECT AE,2019,93.83,10.0,-,97.71,Inactive,1,LEO,Russia,To Be Determined,Commercial,Earth Observation,Soyuz,1 44414U 19038AE  24142.51860261  .00028671  00000+0  84639-3 0  9996,2 44414  97.7092 136.5512 0014591 191.5523 168.5387 15.34832591269604,15.34832591,0.0014591,LEO
11648,GORIZONT 3,1979,1436.51,-1.0,-,7.78,Inactive,0,GSO,Kazakhstan,Russia/USSR,Unknown,Unknown,Unknown,1 11648U 79105A   24141.60995251  .00000151  00000+0  00000+0 0  9996,2 11648   7.7760 295.4647 0012226 233.4489 331.8834  1.00243340114869,1.0024334,0.0012226,GSO
44421,COSMOS 2535,2019,96.74,-1.0,-,97.67,Inactive,1,LEO,Russia,Russia/USSR,Military,Technology Development,Soyuz,1 44421U 19039A   24142.54990805  .00002817  00000+0  30883-3 0  9992,2 44421  97.6685 186.0222 0008404 196.6917 163.4025 14.88491193263835,14.88491193,0.0008404,LEO
19851,METEOR 2-18,1989,103.9,-1.0,UNK,82.52,Inactive,0,LEO,Russia,Russia/USSR,Unknown,Unknown,Unknown,1 19851U 89018A   24142.21888307  .00000178  00000+0  14241-3 0  9990,2 19851  82.5232  54.0731 0013734  99.7324  63.3099 13.85885923781176,13.85885923,0.0013734,LEO
11667,COSMOS 1150,1980,104.84,-1.0,UNK,82.96,Inactive,0,LEO,Russia,Russia/USSR,Unknown,Unknown,Unknown,1 11667U 80003A   24141.86064334  .00000119  00000+0  11085-3 0  9996,2 11667  82.9578  17.3623 0030991 230.9363 263.6470 13.73573815222740,13.73573815,0.0030991,LEO
11669,OPS 6393 (FLTSATCOM 3),1980,1434.75,-1.0,UNK,7.75,Inactive,0,GSO,USA,USA,Unknown,Unknown,Unknown,1 11669U 80004A   24141.43216420 -.00000271  00000+0  00000+0 0  9998,2 11669   7.7483 310.3314 0023532 219.6742 154.5773  1.00365744162264,1.00365744,0.0023532,GSO
28057,CBERS 2 (ZY 1B),2003,100.27,-1.0,-,98.65,Inactive,0,LEO,PRC,China/Brazil,Unknown,Unknown,Long March,1 28057U 03049A   24142.38982189  .00000506  00000+0  18919-3 0  9990,2 28057  98.6508  95.4830 0000641 127.4472 232.6771 14.36082994 78556,14.36082994,6.41e-05,LEO
28060,SERVIS 1,2003,104.96,-1.0,-,99.47,Inactive,0,LEO,Russia,Japan,Unknown,Unknown,Rokot,1 28060U 03050A   24141.88497324  .00000139  00000+0  20151-3 0  9995,2 28060  99.4669 137.7675 0020622 251.0429 169.8343 13.71992279 29175,13.71992279,0.0020622,LEO
11680,COSMOS 1153,1980,104.82,-1.0,UNK,82.93,Inactive,0,LEO,Russia,Russia/USSR,Unknown,Unknown,Unknown,1 11680U 80007A   24142.15675675  .00000115  00000+0  10638-3 0  9993,2 11680  82.9345  10.9340 0035773 284.2253 194.2503 13.73762096221493,13.73762096,0.0035773,LEO
19874,JCSAT-1,1989,1446.72,-1.0,-,14.95,Inactive,0,GSO,French Guiana,Japan,Unknown,Unknown,Ariane,1 19874U 89020A   24141.51883983 -.00000256  00000+0  00000+0 0  9997,2 19874  14.9532 358.8843 0005804 121.7557 249.2627  0.99535364121302,0.99535364,0.0005804,GSO
19876,METEOSAT-4 (MOP-1),1989,1482.85,-1.0,-,15.28,Inactive,0,GSO,French Guiana,ESA,Unknown,Unknown,Unknown,1 19876U 89020B   24141.48448788 -.00000149  00000+0  00000+0 0  9996,2 19876  15.2777 351.6875 0021794 181.0303  12.6816  0.97110099105574,0.97110099,0.0021794,HEO
11690,NAVSTAR 5 (OPS 5117),1980,717.94,-1.0,-,64.24,Inactive,0,MEO,USA,USA,Unknown,Unknown,Unknown,1 11690U 80011A   24141.79268644 -.00000043  00000+0  00000+0 0  9991,2 11690  64.2445  71.8235 0480216 204.3022 340.1973  2.00574696338521,2.00574696,0.0480216,MEO
11691,COSMOS 1156,1980,114.57,-1.0,UNK,74.02,Inactive,0,LEO,Russia,Russia/USSR,Unknown,Unknown,Unknown,1 11691U 80012A   24142.53695736  .00000014  00000+0  18342-3 0  9991,2 11691  74.0213 329.4578 0048817 344.3456  77.4078 12.56879125 31566,12.56879125,0.0048817,LEO
11692,COSMOS 1157,1980,114.78,-1.0,UNK,74.02,Inactive,0,LEO,Russia,Russia/USSR,Unknown,Unknown,Unknown,1 11692U 80012B   24141.28642767 -.00000013  00000+0  19905-4 0  9996,2 11692  74.0228  65.5286 0038983 107.3383  12.5526 12.54549232 27391,12.54549232,0.0038983,LEO
11693,COSMOS 1158,1980,114.99,-1.0,UNK,74.02,Inactive,0,LEO,Russia,Russia/USSR,Unknown,Unknown,Unknown,1 11693U 80012C   24141.50180608  .00000020  00000+0  23068-3 0  9994,2 11693  74.0183 154.7843 0027874 213.4581 265.1446 12.52331435 23865,12.52331435,0.0027874,LEO
11694,COSMOS 1159,1980,115.19,-1.0,UNK,74.02,Inactive,0,LEO,Russia,Russia/USSR,Unknown,Unknown,Unknown,1 11694U 80012D   24141.72991250 -.00000014  00000+0  12363-4 0  9993,2 11694  74.0214 243.6048 0018391 331.1995 141.0480 12.50108498 20537,12.50108498,0.0018391,LEO
11695,COSMOS 1160,1980,115.41,-1.0,UNK,74.02,Inactive,0,LEO,Russia,Russia/USSR,Unknown,Unknown,Unknown,1 11695U 80012E   24141.56600340  .00000016  00000+0  21266-3 0  9995,2 11695  74.0221 338.2121 0011148 124.3354 296.6376 12.47757884 16488,12.47757884,0.0011148,LEO
3504,COSMOS 249,1968,111.07,-1.0,UNK,62.36,Inactive,0,LEO,Kazakhstan,Russia/USSR,Unknown,Unknown,Tsiklon,1 03504U 68091A   24141.83631628  .00000258  00000+0  11867-3 0  9995,2 03504  62.3557 358.1358 0987775 224.5692 127.1660 12.96535718621883,12.96535718,0.0987775,LEO
